GSAT0101 (PRN E11)      
1 37846U 11060A   23264.30771728 -.00000078  00000+0  00000+0 0  9992
2 37846  57.1111   8.8408 0001178  75.3836 284.6539  1.70475880 74078
GSAT0102 (PRN E12)      
1 37847U 11060B   23262.59751560 -.00000079  00000+0  00000+0 0  9995
2 37847  57.1117   8.8871 0001306 321.5110 115.1776  1.70475346 74059
GSAT0103 (PRN E19)      
1 38857U 12055A   23267.27983430  .00000033  00000+0  00000+0 0  9994
2 38857  55.2896 128.9443 0002392 257.6236 102.4464  1.70473622 68159
GSAT0104 (PRN E20)      
1 38858U 12055B   23266.07608985  .00000032  00000+0  00000+0 0  9990
2 38858  55.2892 128.9790 0000605 155.0045 205.0932  1.70473895 67998
GSAT0201 (PRN E18)      
1 40128U 14050A   23268.36377530 -.00000033  00000+0  00000+0 0  9995
2 40128  49.9166 313.7255 1608185 141.1732 231.5767  1.85519147 61780
GSAT0202 (PRN E14)      
1 40129U 14050B   23267.54509915 -.00000030  00000+0  00000+0 0  9996
2 40129  49.9364 312.8303 1606158 141.9531 230.5792  1.85519893 61963
GSAT0203 (PRN E26)      
1 40544U 15017A   23264.67372741 -.00000079  00000+0  00000+0 0  9990
2 40544  56.9063   8.8014 0003705 231.1064 128.8850  1.70476062 52823
GSAT0204 (PRN E22)      
1 40545U 15017B   23263.16764989 -.00000078  00000+0  00000+0 0  9992
2 40545  56.9127   8.8568 0003932 215.0847 144.9135  1.70475744 52800
GSAT0205 (PRN E24)      
1 40889U 15045A   23267.62827301  .00000041  00000+0  00000+0 0  9996
2 40889  55.3541 249.1355 0003828   1.1346 358.8567  1.70473122 50025
GSAT0206 (PRN E30)      
1 40890U 15045B   23267.26237028  .00000043  00000+0  00000+0 0  9991
2 40890  55.3530 249.1411 0002536 331.2539  28.7239  1.70473149 50044
GSAT0209 (PRN E09)      
1 41174U 15079A   23265.67431724  .00000032  00000+0  00000+0 0  9994
2 41174  55.3067 128.6955 0002609 337.8564  22.2272  1.70474035 47755
GSAT0208 (PRN E08)      
1 41175U 15079B   23267.65370397  .00000034  00000+0  00000+0 0  9995
2 41175  55.3059 128.6392 0001937 349.6652  10.4289  1.70473869 48363
GSAT0211 (PRN E02)      
1 41549U 16030A   23267.77463952  .00000040  00000+0  00000+0 0  9998
2 41549  55.5004 249.1096 0004099 316.2103  43.7469  1.70473173 45660
GSAT0210 (PRN E01)      
1 41550U 16030B   23266.89297358  .00000046  00000+0  00000+0 0  9993
2 41550  55.5002 249.1349 0004080 279.8437  80.1031  1.70473408 45666
GSAT0207 (PRN E07)      
1 41859U 16069A   23267.14132116  .00000032  00000+0  00000+0 0  9991
2 41859  54.9701 128.7221 0002324 314.5421  45.5352  1.70473961 42625
GSAT0212 (PRN E03)      
1 41860U 16069B   23266.99595334  .00000031  00000+0  00000+0 0  9999
2 41860  54.9677 128.7230 0001986  10.3768 349.7233  1.70474130 42656
GSAT0213 (PRN E04)      
1 41861U 16069C   23267.94876621  .00000034  00000+0  00000+0 0  9990
2 41861  54.9706 128.7025 0002155 272.5745  87.4999  1.70472826 42664
GSAT0214 (PRN E05)      
1 41862U 16069D   23266.92284502  .00000031  00000+0  00000+0 0  9996
2 41862  54.9681 128.7250 0001257 282.8193  77.2624  1.70472728 42641
GSAT0215 (PRN E21)      
1 43055U 17079A   23267.41134832  .00000043  00000+0  00000+0 0  9992
2 43055  55.4768 248.9451 0003563 274.5065  85.4438  1.70473871 35999
GSAT0216 (PRN E25)      
1 43056U 17079B   23267.70325020  .00000040  00000+0  00000+0 0  9993
2 43056  55.4777 248.9369 0005133 279.4041  80.5276  1.70473983 35980
GSAT0217 (PRN E27)      
1 43057U 17079C   23267.33703065  .00000043  00000+0  00000+0 0  9995
2 43057  55.4753 248.9460 0004587 290.0147  69.9273  1.70473963 35992
GSAT0218 (PRN E31)      
1 43058U 17079D   23267.55708086  .00000042  00000+0  00000+0 0  9997
2 43058  55.4754 248.9377 0005612 275.3375  84.5889  1.70473949 36025
GSAT0221 (PRN E15)      
1 43564U 18060A   23259.83127371 -.00000085  00000+0  00000+0 0  9992
2 43564  57.2861   8.8642 0002955 251.6027 108.3809  1.70476287 32045
GSAT0222 (PRN E33)      
1 43565U 18060B   23268.26156266 -.00000089  00000+0  00000+0 0  9999
2 43565  57.2909   8.6384 0003978 219.4623 140.5279  1.70475771 32237
GSAT0219 (PRN E36)      
1 43566U 18060C   23267.31070046 -.00000085  00000+0  00000+0 0  9992
2 43566  57.2900   8.6662 0002535 256.4137 103.5787  1.70476004 32195
GSAT0220 (PRN E13)      
1 43567U 18060D   23263.42504255 -.00000078  00000+0  00000+0 0  9997
2 43567  57.2896   8.7718 0002906 252.8548 107.1378  1.70475951 32119
GSAT0223 (PRN E34)      
1 49809U 21116A   23267.41475998 -.00000085  00000+0  00000+0 0  9990
2 49809  57.2810   8.5598 0003498 188.0129 190.8503  1.70475882 11193
GSAT0224 (PRN E10)      
1 49810U 21116B   23267.35550248 -.00000085  00000+0  00000+0 0  9997
2 49810  57.2818   8.5598 0002927 177.3613 277.6189  1.70475930 11219
